[{"OBJECT_NAME":"ALOS (DAICHI)","OBJECT_ID":"2006-002A","EPOCH":"2026-03-08T11:33:45.970848","MEAN_MOTION":14.69807125,"ECCENTRICITY":9.734e-5,"INCLINATION":98.1218,"RA_OF_ASC_NODE":23.4433,"ARG_OF_PERICENTER":57.2536,"MEAN_ANOMALY":302.8763,"EPHEMERIS_TYPE":0,"CLASSIFICATION_TYPE":"U","NORAD_CAT_ID":28931,"ELEMENT_SET_NO":999,"REV_AT_EPOCH":7330,"BSTAR":0.00038440881,"MEAN_MOTION_DOT":2.246e-5,"MEAN_MOTION_DDOT":0},{"OBJECT_NAME":"H-2A R/B","OBJECT_ID":"2006-002B","EPOCH":"2026-03-08T10:06:50.299200","MEAN_MOTION":15.1639057,"ECCENTRICITY":0.00519843,"INCLINATION":98.2409,"RA_OF_ASC_NODE":214.3354,"ARG_OF_PERICENTER":245.4365,"MEAN_ANOMALY":114.1443,"EPHEMERIS_TYPE":0,"CLASSIFICATION_TYPE":"U","NORAD_CAT_ID":28932,"ELEMENT_SET_NO":999,"REV_AT_EPOCH":9424,"BSTAR":0.00083774676,"MEAN_MOTION_DOT":0.00016785,"MEAN_MOTION_DDOT":0},{"OBJECT_NAME":"RESURS-DK 1","OBJECT_ID":"2006-021A","EPOCH":"2026-03-08T14:38:00.946752","MEAN_MOTION":15.12735699,"ECCENTRICITY":0.00020116,"INCLINATION":69.9314,"RA_OF_ASC_NODE":239.8164,"ARG_OF_PERICENTER":163.2558,"MEAN_ANOMALY":196.8675,"EPHEMERIS_TYPE":0,"CLASSIFICATION_TYPE":"U","NORAD_CAT_ID":29228,"ELEMENT_SET_NO":999,"REV_AT_EPOCH":8736,"BSTAR":0.00026738637,"MEAN_MOTION_DOT":4.591e-5,"MEAN_MOTION_DDOT":0},{"OBJECT_NAME":"CZ-4B R/B","OBJECT_ID":"2006-046C","EPOCH":"2026-03-08T14:52:24.388608","MEAN_MOTION":15.16892202,"ECCENTRICITY":0.00316691,"INCLINATION":97.5593,"RA_OF_ASC_NODE":112.5313,"ARG_OF_PERICENTER":271.2591,"MEAN_ANOMALY":88.5014,"EPHEMERIS_TYPE":0,"CLASSIFICATION_TYPE":"U","NORAD_CAT_ID":29507,"ELEMENT_SET_NO":999,"REV_AT_EPOCH":5988,"BSTAR":0.00034638887,"MEAN_MOTION_DOT":6.842e-5,"MEAN_MOTION_DDOT":0},{"OBJECT_NAME":"CZ-2C R/B","OBJECT_ID":"2007-010B","EPOCH":"2026-03-08T07:36:19.096416","MEAN_MOTION":14.20245714,"ECCENTRICITY":0.00579388,"INCLINATION":98.3979,"RA_OF_ASC_NODE":180.6645,"ARG_OF_PERICENTER":298.6678,"MEAN_ANOMALY":60.8682,"EPHEMERIS_TYPE":0,"CLASSIFICATION_TYPE":"U","NORAD_CAT_ID":31114,"ELEMENT_SET_NO":999,"REV_AT_EPOCH":97952,"BSTAR":0.0001060795,"MEAN_MOTION_DOT":1.89e-6,"MEAN_MOTION_DDOT":0},{"OBJECT_NAME":"COSMO-SKYMED 1","OBJECT_ID":"2007-023A","EPOCH":"2026-03-08T14:16:19.785216","MEAN_MOTION":14.96525751,"ECCENTRICITY":0.00011429,"INCLINATION":97.8868,"RA_OF_ASC_NODE":258.6176,"ARG_OF_PERICENTER":101.5156,"MEAN_ANOMALY":258.6193,"EPHEMERIS_TYPE":0,"CLASSIFICATION_TYPE":"U","NORAD_CAT_ID":31598,"ELEMENT_SET_NO":999,"REV_AT_EPOCH":1474,"BSTAR":0.00048733969,"MEAN_MOTION_DOT":5.482e-5,"MEAN_MOTION_DDOT":0},{"OBJECT_NAME":"COSMOS 2428","OBJECT_ID":"2007-029A","EPOCH":"2026-03-08T14:44:42.935712","MEAN_MOTION":14.12945874,"ECCENTRICITY":0.00090784,"INCLINATION":70.943,"RA_OF_ASC_NODE":205.5996,"ARG_OF_PERICENTER":278.1267,"MEAN_ANOMALY":81.8824,"EPHEMERIS_TYPE":0,"CLASSIFICATION_TYPE":"U","NORAD_CAT_ID":31792,"ELEMENT_SET_NO":999,"REV_AT_EPOCH":96394,"BSTAR":6.3586147e-5,"MEAN_MOTION_DOT":7.1e-7,"MEAN_MOTION_DDOT":0},{"OBJECT_NAME":"SL-16 R/B","OBJECT_ID":"2007-029B","EPOCH":"2026-03-08T13:32:19.682016","MEAN_MOTION":14.14833249,"ECCENTRICITY":0.00023153,"INCLINATION":70.9759,"RA_OF_ASC_NODE":174.7506,"ARG_OF_PERICENTER":276.3599,"MEAN_ANOMALY":95.0936,"EPHEMERIS_TYPE":0,"CLASSIFICATION_TYPE":"U","NORAD_CAT_ID":31793,"ELEMENT_SET_NO":999,"REV_AT_EPOCH":96521,"BSTAR":2.8204281e-5,"MEAN_MOTION_DOT":7.0e-8,"MEAN_MOTION_DDOT":0},{"OBJECT_NAME":"KORONAS-FOTON","OBJECT_ID":"2009-003A","EPOCH":"2026-03-08T12:46:37.394400","MEAN_MOTION":15.43297157,"ECCENTRICITY":0.00112469,"INCLINATION":82.4274,"RA_OF_ASC_NODE":277.0813,"ARG_OF_PERICENTER":153.266,"MEAN_ANOMALY":206.917,"EPHEMERIS_TYPE":0,"CLASSIFICATION_TYPE":"U","NORAD_CAT_ID":33504,"ELEMENT_SET_NO":999,"REV_AT_EPOCH":94556,"BSTAR":0.0003735964,"MEAN_MOTION_DOT":0.00016711,"MEAN_MOTION_DDOT":0},{"OBJECT_NAME":"CZ-2C R/B","OBJECT_ID":"2011-030B","EPOCH":"2026-03-08T11:21:20.287008","MEAN_MOTION":14.81218145,"ECCENTRICITY":0.00525207,"INCLINATION":97.8549,"RA_OF_ASC_NODE":24.7607,"ARG_OF_PERICENTER":356.045,"MEAN_ANOMALY":116.4277,"EPHEMERIS_TYPE":0,"CLASSIFICATION_TYPE":"U","NORAD_CAT_ID":37731,"ELEMENT_SET_NO":999,"REV_AT_EPOCH":78991,"BSTAR":0.00033376444,"MEAN_MOTION_DOT":2.606e-5,"MEAN_MOTION_DDOT":0},{"OBJECT_NAME":"H-2A R/B","OBJECT_ID":"2012-025E","EPOCH":"2026-03-08T10:58:10.084224","MEAN_MOTION":14.95158696,"ECCENTRICITY":0.00434108,"INCLINATION":98.4741,"RA_OF_ASC_NODE":34.4046,"ARG_OF_PERICENTER":318.6146,"MEAN_ANOMALY":41.1786,"EPHEMERIS_TYPE":0,"CLASSIFICATION_TYPE":"U","NORAD_CAT_ID":38341,"ELEMENT_SET_NO":999,"REV_AT_EPOCH":74803,"BSTAR":0.00059742908,"MEAN_MOTION_DOT":6.616e-5,"MEAN_MOTION_DDOT":0},{"OBJECT_NAME":"SHIJIAN-16 (SJ-16)","OBJECT_ID":"2013-057A","EPOCH":"2026-03-08T14:57:46.416960","MEAN_MOTION":14.92341202,"ECCENTRICITY":0.00154793,"INCLINATION":74.9736,"RA_OF_ASC_NODE":187.106,"ARG_OF_PERICENTER":115.6312,"MEAN_ANOMALY":244.6477,"EPHEMERIS_TYPE":0,"CLASSIFICATION_TYPE":"U","NORAD_CAT_ID":39358,"ELEMENT_SET_NO":999,"REV_AT_EPOCH":67134,"BSTAR":0.0003467533,"MEAN_MOTION_DOT":3.526e-5,"MEAN_MOTION_DDOT":0},{"OBJECT_NAME":"SL-4 R/B","OBJECT_ID":"2014-021B","EPOCH":"2026-03-08T11:02:45.183552","MEAN_MOTION":15.3913431,"ECCENTRICITY":0.00976841,"INCLINATION":51.6077,"RA_OF_ASC_NODE":343.2763,"ARG_OF_PERICENTER":98.537,"MEAN_ANOMALY":262.6698,"EPHEMERIS_TYPE":0,"CLASSIFICATION_TYPE":"U","NORAD_CAT_ID":39679,"ELEMENT_SET_NO":999,"REV_AT_EPOCH":65608,"BSTAR":0.00044531571,"MEAN_MOTION_DOT":0.00020338,"MEAN_MOTION_DDOT":0},{"OBJECT_NAME":"ALOS-2","OBJECT_ID":"2014-029A","EPOCH":"2026-03-08T13:39:29.001888","MEAN_MOTION":14.79504317,"ECCENTRICITY":0.0001547,"INCLINATION":97.9194,"RA_OF_ASC_NODE":166.1826,"ARG_OF_PERICENTER":96.0349,"MEAN_ANOMALY":264.1039,"EPHEMERIS_TYPE":0,"CLASSIFICATION_TYPE":"U","NORAD_CAT_ID":39766,"ELEMENT_SET_NO":999,"REV_AT_EPOCH":63670,"BSTAR":0.00082314,"MEAN_MOTION_DOT":6.106e-5,"MEAN_MOTION_DDOT":0},{"OBJECT_NAME":"YAOGAN-29","OBJECT_ID":"2015-069A","EPOCH":"2026-03-08T15:32:19.839840","MEAN_MOTION":14.82996316,"ECCENTRICITY":0.00020138,"INCLINATION":98.0143,"RA_OF_ASC_NODE":96.074,"ARG_OF_PERICENTER":39.3444,"MEAN_ANOMALY":320.7916,"EPHEMERIS_TYPE":0,"CLASSIFICATION_TYPE":"U","NORAD_CAT_ID":41038,"ELEMENT_SET_NO":999,"REV_AT_EPOCH":55572,"BSTAR":0.00014056539,"MEAN_MOTION_DOT":1.088e-5,"MEAN_MOTION_DDOT":0},{"OBJECT_NAME":"ASTRO-H (HITOMI)","OBJECT_ID":"2016-012A","EPOCH":"2026-03-08T12:14:54.279744","MEAN_MOTION":15.0999663,"ECCENTRICITY":0.00099159,"INCLINATION":31.0009,"RA_OF_ASC_NODE":4.1577,"ARG_OF_PERICENTER":319.2518,"MEAN_ANOMALY":40.7378,"EPHEMERIS_TYPE":0,"CLASSIFICATION_TYPE":"U","NORAD_CAT_ID":41337,"ELEMENT_SET_NO":999,"REV_AT_EPOCH":55205,"BSTAR":0.00028283103,"MEAN_MOTION_DOT":4.808e-5,"MEAN_MOTION_DDOT":0}]
